IRIDIUM 113             
1 42803U 17039A   24144.83337210  .00000729  00000+0  25310-3 0  9990
2 42803  86.3951 277.3647 0002016  87.3461 272.7966 14.34215586363061
IRIDIUM 123             
1 42804U 17039B   24144.87484796  .00000179  00000+0  56830-4 0  9998
2 42804  86.3936 308.8653 0002076  85.9974 274.1459 14.34215560361839
IRIDIUM 120             
1 42805U 17039C   24144.82702328  .00000171  00000+0  54125-4 0  9995
2 42805  86.3937 277.2474 0002114  93.9966 266.1471 14.34211979363055
IRIDIUM 115             
1 42806U 17039D   24144.86837822  .00000979  00000+0  28521-3 0  9994
2 42806  86.4477 277.2513 0002056  82.8800 277.2634 14.43271413365469
IRIDIUM 118             
1 42807U 17039E   24144.83679476  .00000440  00000+0  14998-3 0  9997
2 42807  86.3938 308.8828 0002345  91.9525 268.1939 14.34216017361829
